{
    "links": {
        "self": "http://www.neowsapp.com/rest/v1/neo/3324628?api_key=iIulBulltgU6a56xZRHN4H3l9WmuAYTsLGpBGhQ2"
    },
    "id": "3324628",
    "neo_reference_id": "3324628",
    "name": "(2006 DR62)",
    "designation": "2006 DR62",
    "nasa_jpl_url": "http://ssd.jpl.nasa.gov/sbdb.cgi?sstr=3324628",
    "absolute_magnitude_h": 25.3,
    "estimated_diameter": {
        "kilometers": {
            "estimated_diameter_min": 0.0231502122,
            "estimated_diameter_max": 0.0517654482
        },
        "meters": {
            "estimated_diameter_min": 23.150212221,
            "estimated_diameter_max": 51.7654482198
        },
        "miles": {
            "estimated_diameter_min": 0.0143848705,
            "estimated_diameter_max": 0.0321655483
        },
        "feet": {
            "estimated_diameter_min": 75.9521422633,
            "estimated_diameter_max": 169.8341531374
        }
    },
    "is_potentially_hazardous_asteroid": false,
    "close_approach_data": [
        {
            "close_approach_date": "2006-02-16",
            "close_approach_date_full": "2006-Feb-16 04:01",
            "epoch_date_close_approach": 1140062460000,
            "relative_velocity": {
                "kilometers_per_second": "5.5184658358",
                "kilometers_per_hour": "19866.4770087062",
                "miles_per_hour": "12344.256227993"
            },
            "miss_distance": {
                "astronomical": "0.1062153326",
                "lunar": "41.3177643814",
                "kilometers": "15889587.518301562",
                "miles": "9873331.8513910756"
            },
            "orbiting_body": "Earth"
        }
    ],
    "orbital_data": {
        "orbit_id": "6",
        "orbit_determination_date": "2017-04-06 09:09:02",
        "first_observation_date": "2006-02-25",
        "last_observation_date": "2006-02-27",
        "data_arc_in_days": 2,
        "observations_used": 24,
        "orbit_uncertainty": "9",
        "minimum_orbit_intersection": ".1041",
        "jupiter_tisserand_invariant": "3.735",
        "epoch_osculation": "2453792.5",
        "eccentricity": ".4474232962051111",
        "semi_major_axis": "1.970412043528244",
        "inclination": "6.080827420696906",
        "ascending_node_longitude": "154.6514912968755",
        "orbital_period": "1010.26197469342",
        "perihelion_distance": "1.088803792130588",
        "perihelion_argument": "345.5752108460154",
        "aphelion_distance": "2.8520202949259",
        "perihelion_time": "2453777.132808732007",
        "mean_anomaly": "5.475994341127521",
        "mean_motion": ".3563432149460518",
        "equinox": "J2000",
        "orbit_class": {
            "orbit_class_type": "AMO",
            "orbit_class_description": "Near-Earth asteroid orbits similar to that of 1221 Amor",
            "orbit_class_range": "1.017 AU < q (perihelion) < 1.3 AU"
        }
    },
    "is_sentry_object": false
}